[{"OBJECT_NAME":"KOSEN-1","OBJECT_ID":"2021-102H","EPOCH":"2026-03-09T22:29:54.100608","MEAN_MOTION":15.25323573,"ECCENTRICITY":0.00138659,"INCLINATION":97.3334,"RA_OF_ASC_NODE":113.0569,"ARG_OF_PERICENTER":191.9191,"MEAN_ANOMALY":168.1721,"EPHEMERIS_TYPE":0,"CLASSIFICATION_TYPE":"U","NORAD_CAT_ID":49402,"ELEMENT_SET_NO":999,"REV_AT_EPOCH":23888,"BSTAR":0.00040411561,"MEAN_MOTION_DOT":0.00010142,"MEAN_MOTION_DDOT":0},{"OBJECT_NAME":"STARLINK-32595","OBJECT_ID":"2024-216F","EPOCH":"2026-03-09T23:00:42.687360","MEAN_MOTION":15.27582743,"ECCENTRICITY":0.00016439,"INCLINATION":42.9992,"RA_OF_ASC_NODE":261.9959,"ARG_OF_PERICENTER":270.9756,"MEAN_ANOMALY":89.0908,"EPHEMERIS_TYPE":0,"CLASSIFICATION_TYPE":"U","NORAD_CAT_ID":62037,"ELEMENT_SET_NO":999,"REV_AT_EPOCH":7384,"BSTAR":0.00073115706,"MEAN_MOTION_DOT":0.00019914,"MEAN_MOTION_DDOT":0}]
